KUIPER-00112            
1 65150U 25171U   25268.17120534  .00054731  00000+0  15263-2 0  9997
2 65150  51.8770 189.4429 0004600 316.4856  43.5766 15.36216245  8102
KUIPER-00114            
1 65151U 25171V   25268.33339120  .00013789  00000+0  76190-3 0  9994
2 65151  51.8919 190.3270 0003469 297.8790  88.1308 15.14156421  5114
KUIPER-00115            
1 65152U 25171W   25268.33339120 -.00507189  00000+0 -16834-1 0  9996
2 65152  51.8759 188.5285 0006240 279.7911 321.5771 15.32803521  5787
KUIPER-00116            
1 65153U 25171X   25268.33339120 -.00582835  00000+0 -28890-1 0  9993
2 65153  51.8862 189.5301 0003827 269.7341 165.1504 15.19575028  5360
KUIPER-00118            
1 65154U 25171Y   25268.33339120 -.00754302  00000+0 -42017-1 0  9991
2 65154  51.8848 190.1913 0003218 278.5765 241.0240 15.15777542  5445
KUIPER-00119            
1 65155U 25171Z   25268.27985526  .00062678  00000+0  17047-2 0  9994
2 65155  51.8755 188.6702 0005251 274.9671  85.0716 15.36931748  8121
