<?xml version="1.0" encoding="UTF-8"?>
<ndm xmlns:xsi="http://www.w3.org/2001/XMLSchema-instance" xsi:noNamespaceSchemaLocation="https://sanaregistry.org/r/ndmxml_unqualified/ndmxml-2.0.0-master-2.0.xsd">
<omm id="CCSDS_OMM_VERS" version="2.0">
<header><CREATION_DATE/><ORIGINATOR/></header><body><segment><metadata><OBJECT_NAME>KUIPER-00112</OBJECT_NAME><OBJECT_ID>2025-171U</OBJECT_ID><CENTER_NAME>EARTH</CENTER_NAME><REF_FRAME>TEME</REF_FRAME><TIME_SYSTEM>UTC</TIME_SYSTEM><MEAN_ELEMENT_THEORY>SGP4</MEAN_ELEMENT_THEORY></metadata><data><meanElements><EPOCH>2025-09-25T04:06:32.141376</EPOCH><MEAN_MOTION>15.36216245</MEAN_MOTION><ECCENTRICITY>.00046009</ECCENTRICITY><INCLINATION>51.8770</INCLINATION><RA_OF_ASC_NODE>189.4429</RA_OF_ASC_NODE><ARG_OF_PERICENTER>316.4856</ARG_OF_PERICENTER><MEAN_ANOMALY>43.5766</MEAN_ANOMALY></meanElements><tleParameters><EPHEMERIS_TYPE>0</EPHEMERIS_TYPE><CLASSIFICATION_TYPE>U</CLASSIFICATION_TYPE><NORAD_CAT_ID>65150</NORAD_CAT_ID><ELEMENT_SET_NO>999</ELEMENT_SET_NO><REV_AT_EPOCH>810</REV_AT_EPOCH><BSTAR>.15263323E-2</BSTAR><MEAN_MOTION_DOT>.54731E-3</MEAN_MOTION_DOT><MEAN_MOTION_DDOT>0</MEAN_MOTION_DDOT></tleParameters></data></segment></body></omm>
<omm id="CCSDS_OMM_VERS" version="2.0">
<header><CREATION_DATE/><ORIGINATOR/></header><body><segment><metadata><OBJECT_NAME>KUIPER-00114</OBJECT_NAME><OBJECT_ID>2025-171V</OBJECT_ID><CENTER_NAME>EARTH</CENTER_NAME><REF_FRAME>TEME</REF_FRAME><TIME_SYSTEM>UTC</TIME_SYSTEM><MEAN_ELEMENT_THEORY>SGP4</MEAN_ELEMENT_THEORY></metadata><data><meanElements><EPOCH>2025-09-25T08:00:04.999680</EPOCH><MEAN_MOTION>15.14156421</MEAN_MOTION><ECCENTRICITY>.00034691</ECCENTRICITY><INCLINATION>51.8919</INCLINATION><RA_OF_ASC_NODE>190.3270</RA_OF_ASC_NODE><ARG_OF_PERICENTER>297.8790</ARG_OF_PERICENTER><MEAN_ANOMALY>88.1308</MEAN_ANOMALY></meanElements><tleParameters><EPHEMERIS_TYPE>0</EPHEMERIS_TYPE><CLASSIFICATION_TYPE>U</CLASSIFICATION_TYPE><NORAD_CAT_ID>65151</NORAD_CAT_ID><ELEMENT_SET_NO>999</ELEMENT_SET_NO><REV_AT_EPOCH>511</REV_AT_EPOCH><BSTAR>.76190406E-3</BSTAR><MEAN_MOTION_DOT>.13789E-3</MEAN_MOTION_DOT><MEAN_MOTION_DDOT>0</MEAN_MOTION_DDOT></tleParameters></data></segment></body></omm>
<omm id="CCSDS_OMM_VERS" version="2.0">
<header><CREATION_DATE/><ORIGINATOR/></header><body><segment><metadata><OBJECT_NAME>KUIPER-00115</OBJECT_NAME><OBJECT_ID>2025-171W</OBJECT_ID><CENTER_NAME>EARTH</CENTER_NAME><REF_FRAME>TEME</REF_FRAME><TIME_SYSTEM>UTC</TIME_SYSTEM><MEAN_ELEMENT_THEORY>SGP4</MEAN_ELEMENT_THEORY></metadata><data><meanElements><EPOCH>2025-09-25T08:00:04.999680</EPOCH><MEAN_MOTION>15.32803521</MEAN_MOTION><ECCENTRICITY>.00062409</ECCENTRICITY><INCLINATION>51.8759</INCLINATION><RA_OF_ASC_NODE>188.5285</RA_OF_ASC_NODE><ARG_OF_PERICENTER>279.7911</ARG_OF_PERICENTER><MEAN_ANOMALY>321.5771</MEAN_ANOMALY></meanElements><tleParameters><EPHEMERIS_TYPE>0</EPHEMERIS_TYPE><CLASSIFICATION_TYPE>U</CLASSIFICATION_TYPE><NORAD_CAT_ID>65152</NORAD_CAT_ID><ELEMENT_SET_NO>999</ELEMENT_SET_NO><REV_AT_EPOCH>578</REV_AT_EPOCH><BSTAR>-.16833773E-1</BSTAR><MEAN_MOTION_DOT>-.507189E-2</MEAN_MOTION_DOT><MEAN_MOTION_DDOT>0</MEAN_MOTION_DDOT></tleParameters></data></segment></body></omm>
<omm id="CCSDS_OMM_VERS" version="2.0">
<header><CREATION_DATE/><ORIGINATOR/></header><body><segment><metadata><OBJECT_NAME>KUIPER-00116</OBJECT_NAME><OBJECT_ID>2025-171X</OBJECT_ID><CENTER_NAME>EARTH</CENTER_NAME><REF_FRAME>TEME</REF_FRAME><TIME_SYSTEM>UTC</TIME_SYSTEM><MEAN_ELEMENT_THEORY>SGP4</MEAN_ELEMENT_THEORY></metadata><data><meanElements><EPOCH>2025-09-25T08:00:04.999680</EPOCH><MEAN_MOTION>15.19575028</MEAN_MOTION><ECCENTRICITY>.00038276</ECCENTRICITY><INCLINATION>51.8862</INCLINATION><RA_OF_ASC_NODE>189.5301</RA_OF_ASC_NODE><ARG_OF_PERICENTER>269.7341</ARG_OF_PERICENTER><MEAN_ANOMALY>165.1504</MEAN_ANOMALY></meanElements><tleParameters><EPHEMERIS_TYPE>0</EPHEMERIS_TYPE><CLASSIFICATION_TYPE>U</CLASSIFICATION_TYPE><NORAD_CAT_ID>65153</NORAD_CAT_ID><ELEMENT_SET_NO>999</ELEMENT_SET_NO><REV_AT_EPOCH>536</REV_AT_EPOCH><BSTAR>-.28889793E-1</BSTAR><MEAN_MOTION_DOT>-.582835E-2</MEAN_MOTION_DOT><MEAN_MOTION_DDOT>0</MEAN_MOTION_DDOT></tleParameters></data></segment></body></omm>
<omm id="CCSDS_OMM_VERS" version="2.0">
<header><CREATION_DATE/><ORIGINATOR/></header><body><segment><metadata><OBJECT_NAME>KUIPER-00118</OBJECT_NAME><OBJECT_ID>2025-171Y</OBJECT_ID><CENTER_NAME>EARTH</CENTER_NAME><REF_FRAME>TEME</REF_FRAME><TIME_SYSTEM>UTC</TIME_SYSTEM><MEAN_ELEMENT_THEORY>SGP4</MEAN_ELEMENT_THEORY></metadata><data><meanElements><EPOCH>2025-09-25T08:00:04.999680</EPOCH><MEAN_MOTION>15.15777542</MEAN_MOTION><ECCENTRICITY>.00032184</ECCENTRICITY><INCLINATION>51.8848</INCLINATION><RA_OF_ASC_NODE>190.1913</RA_OF_ASC_NODE><ARG_OF_PERICENTER>278.5765</ARG_OF_PERICENTER><MEAN_ANOMALY>241.0240</MEAN_ANOMALY></meanElements><tleParameters><EPHEMERIS_TYPE>0</EPHEMERIS_TYPE><CLASSIFICATION_TYPE>U</CLASSIFICATION_TYPE><NORAD_CAT_ID>65154</NORAD_CAT_ID><ELEMENT_SET_NO>999</ELEMENT_SET_NO><REV_AT_EPOCH>544</REV_AT_EPOCH><BSTAR>-.42017012E-1</BSTAR><MEAN_MOTION_DOT>-.754302E-2</MEAN_MOTION_DOT><MEAN_MOTION_DDOT>0</MEAN_MOTION_DDOT></tleParameters></data></segment></body></omm>
<omm id="CCSDS_OMM_VERS" version="2.0">
<header><CREATION_DATE/><ORIGINATOR/></header><body><segment><metadata><OBJECT_NAME>KUIPER-00119</OBJECT_NAME><OBJECT_ID>2025-171Z</OBJECT_ID><CENTER_NAME>EARTH</CENTER_NAME><REF_FRAME>TEME</REF_FRAME><TIME_SYSTEM>UTC</TIME_SYSTEM><MEAN_ELEMENT_THEORY>SGP4</MEAN_ELEMENT_THEORY></metadata><data><meanElements><EPOCH>2025-09-25T06:42:59.494464</EPOCH><MEAN_MOTION>15.36931748</MEAN_MOTION><ECCENTRICITY>.00052511</ECCENTRICITY><INCLINATION>51.8755</INCLINATION><RA_OF_ASC_NODE>188.6702</RA_OF_ASC_NODE><ARG_OF_PERICENTER>274.9671</ARG_OF_PERICENTER><MEAN_ANOMALY>85.0716</MEAN_ANOMALY></meanElements><tleParameters><EPHEMERIS_TYPE>0</EPHEMERIS_TYPE><CLASSIFICATION_TYPE>U</CLASSIFICATION_TYPE><NORAD_CAT_ID>65155</NORAD_CAT_ID><ELEMENT_SET_NO>999</ELEMENT_SET_NO><REV_AT_EPOCH>812</REV_AT_EPOCH><BSTAR>.17047116E-2</BSTAR><MEAN_MOTION_DOT>.62678E-3</MEAN_MOTION_DOT><MEAN_MOTION_DDOT>0</MEAN_MOTION_DDOT></tleParameters></data></segment></body></omm>
</ndm>
